183P/Korlevic-Juric,e,19.0219,3.9782,168.5602,4.602522,0.0998183,0.12163768,167.0502,06/18.0/2022,2000,g 12.5,2.0
# From MPEC 2020-W26
184P/Lovas,e,4.5738,173.2416,186.5133,3.796020,0.1332635,0.55106116,79.9161,06/18.0/2022,2000,g 13.5,4.0
# From MPC109593
185P/Petriew,e,14.0135,214.1104,181.8799,3.098254,0.1807293,0.69959619,289.5274,06/18.0/2022,2000,g 15.0,4.0
# From MPEC 2021-W31
186P/Garradd,e,28.7329,326.5013,270.6408,4.866739,0.0918009,0.12323508,114.9880,06/18.0/2022,2000,g  7.5,4.0
# From MPEC 2020-SI8
187P/LINEAR,e,13.6348,109.9026,131.5474,4.566817,0.1009912,0.15211312,151.2366,06/18.0/2022,2000,g  9.0,4.0
# From MPEC 2022-K19
188P/LINEAR-Mueller,e,10.5264,358.9678,26.5900,4.372014,0.1078157,0.41652475,209.6300,06/18.0/2022,2000,g 11.5,4.0
# From MPC106349
189P/NEAT,e,20.0686,281.7169,16.3279,2.945467,0.1949723,0.58868077,345.9926,06/18.0/2022,2000,g 19.0,4.0
# From MPEC 2020-K19
190P/Mueller,e,2.1741,335.5602,50.3378,4.231976,0.1132112,0.52199549,255.8391,06/18.0/2022,2000,g 13.0,4.0
# From MPEC 2022-C56
191P/McNaught,e,8.8414,98.2307,284.0705,3.636300,0.1421394,0.38599402,64.6311,06/18.0/2022,2000,g 13.0,4.0
# From MPC 75724
192P/Shoemaker-Levy,e,24.5786,51.6108,313.0241,6.471696,0.0598655,0.77345677,317.7160,06/18.0/2022,2000,g 15.0,4.0
# From MPEC 2022-K19
193P/LINEAR-NEAT,e,10.6883,335.1728,8.0797,3.576388,0.1457260,0.39380356,43.2543,06/18.0/2022,2000,g 14.0,4.0
# From MPC 98566
194P/LINEAR,e,11.9418,349.6309,128.9754,4.116330,0.1180154,0.56880222,289.8822,06/18.0/2022,2000,g 16.0,4.0
# From MPEC 2021-S45
195P/Hill,e,36.3326,243.1247,249.2401,6.506786,0.0593819,0.31396821,292.6070,06/18.0/2022,2000,g  8.5,4.0
# From MPC 92985
196P/Tichy,e,19.2980,24.1143,12.0759,3.807444,0.1326642,0.42870003,342.3000,06/18.0/2022,2000,g 13.5,4.0
# From MPC 94676
197P/LINEAR,e,25.5278,66.3658,188.7497,2.867990,0.2029260,0.62938657,324.9497,06/18.0/2022,2000,g 16.5,2.0
# From NK 1596
198P/ODAS,e,1.3386,358.2414,69.1787,3.597248,0.1444603,0.44394001,185.1681,06/18.0/2022,2000,g  9.0,4.0
# From MPEC 2022-L66
199P/Shoemaker,e,24.9327,92.3583,191.7447,5.887594,0.0689918,0.50566834,331.3366,06/18.0/2022,2000,g 10.0,4.0
# From MPEC 2022-C56
200P/Larsen,e,12.0981,234.7608,134.2204,4.944292,0.0896495,0.33271201,94.5087,06/18.0/2022,2000,g  9.0,4.0
# From MPC 93588
201P/LONEOS,e,5.7396,19.7453,41.5434,3.354487,0.1604224,0.63718442,62.1293,06/18.0/2022,2000,g 14.0,4.0
# From MPEC 2022-K19
202P/Scotti,e,2.1213,177.3803,276.0470,4.098238,0.1187978,0.25965821,276.4425,06/18.0/2022,2000,g 13.5,4.0
# From MPEC 2021-S45
203P/Korlevic,e,2.9726,290.3167,154.7720,4.669927,0.0976650,0.31544670,81.5825,06/18.0/2022,2000,g 14.5,2.0
# From MPC 98566
204P/LINEAR-NEAT,e,6.5961,108.5010,356.6351,3.581481,0.1454153,0.48779668,337.9201,06/18.0/2022,2000,g 14.0,4.0
# From MPEC 2022-K19
205P/Giacobini,e,15.3062,179.6021,154.1741,3.542730,0.1478077,0.56812938,22.9566,06/18.0/2022,2000,g 13.0,4.0
# From MPC 75725
206P/Barnard-Boattini,e,33.6369,202.3344,189.5084,3.489179,0.1512234,0.55149146,71.1395,06/18.0/2022,2000,g 19.0,4.0
# From MPC 75725
207P/NEAT,e,10.1973,198.1940,273.0592,3.876077,0.1291563,0.75859954,283.4344,06/18.0/2022,2000,g 16.0,4.0
# From MPEC 2022-K19
208P/McMillan,e,4.4122,36.3397,310.5391,4.043297,0.1212274,0.37414056,263.3303,06/18.0/2022,2000,g 12.5,4.0
# From MPC 90771
209P/LINEAR,e,21.2581,62.7711,152.4428,2.959912,0.1935467,0.67310852,213.2744,06/18.0/2022,2000,g 17.0,2.0
# From MPC105242
210P/Christensen,e,10.2683,93.8156,345.8934,3.163406,0.1751748,0.83343412,140.3272,06/18.0/2022,2000,g 13.5,4.0
# From MPEC 2022-ED3
211P/Hill,e,18.9212,117.1315,4.2791,3.546302,0.1475844,0.34364966,343.9720,06/18.0/2022,2000,g 12.5,4.0
# From MPEC 2021-F20
212P/NEAT,e,22.1683,98.1435,14.0643,3.895090,0.1282118,0.58725551,273.1741,06/18.0/2022,2000,g 17.0,2.0
# From MPEC 2022-GA9
213P/VanNess,e,10.3813,311.2925,5.7144,3.347043,0.1609578,0.40824123,277.6542,06/18.0/2022,2000,g 10.5,4.0
# From MPC 92986
214P/LINEAR,e,15.1835,348.2489,190.1920,3.619750,0.1431154,0.48589099,345.6542,06/18.0/2022,2000,g 13.0,4.0
# From MPEC 2022-F14
215P/NEAT,e,10.5786,56.6838,262.3253,4.329769,0.1093974,0.16649965,103.0074,06/18.0/2022,2000,g 11.0,4.0
# From MPC100284
216P/LINEAR,e,9.0653,359.8135,151.5111,3.862918,0.1298168,0.44822186,286.3108,06/18.0/2022,2000,g 13.0,4.0
# From MPEC 2021-N06
217P/LINEAR,e,12.8628,125.4543,246.8907,3.949393,0.1255766,0.68918474,225.4295,06/18.0/2022,2000,g 12.0,4.0
# From MPEC 2022-K19
218P/LINEAR,e,2.7294,175.9877,59.6403,3.090296,0.1814279,0.62250476,112.8814,06/18.0/2022,2000,g 16.0,4.0
# From MPC100284
219P/LINEAR,e,11.5369,230.9528,107.5257,3.647895,0.1414622,0.35415991,274.3427,06/18.0/2022,2000,g 11.0,4.0
# From MPEC 2021-BE3
220P/McNaught,e,8.1288,150.1019,180.5796,3.116838,0.1791153,0.50160079,99.2945,06/18.0/2022,2000,g 15.0,4.0
# From MPEC 2021-J28
221P/LINEAR,e,11.4281,229.6853,40.1534,3.457877,0.1532815,0.49299232,27.8781,06/18.0/2022,2000,g 14.5,4.0
# From MPC 92277
222P/LINEAR,e,5.0986,6.7761,346.2661,2.899028,0.1996758,0.71479964,221.2789,06/18.0/2022,2000,g 20.0,4.0
# From MPEC 2021-S45
223P/Skiff,e,27.0268,346.7709,37.8300,4.158772,0.1162134,0.41637790,143.7292,06/18.0/2022,2000,g 12.0,4.0
# From MPC 75727
224P/LINEAR-NEAT,e,13.3046,40.0391,16.6584,3.445206,0.1541279,0.40612968,343.9798,06/18.0/2022,2000,g 15.5,4.0
# From MPC 75727
225P/LINEAR,e,21.3666,14.2039,3.8941,3.648783,0.1414106,0.63840677,301.1627,06/18.0/2022,2000,g 18.0,4.0
# From MPC106349
226P/Pigott-LINEAR-Kowalski,e,44.0399,54.0078,341.0533,3.766708,0.1348221,0.52884987,284.8650,06/18.0/2022,2000,g 12.5,4.0
# From MPC102956
227P/Catalina-LINEAR,e,7.3290,37.8208,103.6667,3.474017,0.1522146,0.53133988,264.9124,06/18.0/2022,2000,g 16.5,2.0
# From MPEC 2022-HC2
228P/LINEAR,e,7.9130,30.9851,114.9773,4.168278,0.1158161,0.17621838,96.2801,06/18.0/2022,2000,g 14.1,4.0
# From MPC106349
229P/Gibbs,e,26.0923,157.9109,224.0085,3.927700,0.1266183,0.37770031,234.4647,06/18.0/2022,2000,g 13.0,4.0
# From MPEC 2022-GA9
230P/LINEAR,e,15.4701,106.9844,313.4332,3.451285,0.1537209,0.54544838,13.9366,06/18.0/2022,2000,g 13.0,4.0
# From MPEC 2022-K19
231P/LINEAR-NEAT,e,12.3149,133.0088,44.0883,4.041655,0.1213012,0.24462262,133.0715,06/18.0/2022,2000,g 14.5,2.0
# From MPC112394
232P/Hill,e,14.6399,56.0185,53.2870,4.476742,0.1040545,0.33443109,121.6864,06/18.0/2022,2000,g 11.5,4.0
# From MPEC 2021-N06
233P/La Sagra,e,11.2864,74.9151,26.9876,3.029171,0.1869470,0.41196343,116.7317,06/18.0/2022,2000,g 15.0,4.0
# From MPEC 2022-K19
234P/LINEAR,e,11.5355,179.5716,357.2409,3.798037,0.1331574,0.25586880,245.6685,06/18.0/2022,2000,g 12.0,4.0
# From MPC110497
235P/LINEAR,e,9.1474,202.6586,333.5842,3.935022,0.1262651,0.33330055,194.9596,06/18.0/2022,2000,g 12.0,4.0
# From MPC107688
236P/LINEAR,e,16.3448,245.5874,119.2975,3.728902,0.1368777,0.50932271,228.3941,06/18.0/2022,2000,g 14.0,4.0
# From MPEC 2022-K19
237P/LINEAR,e,14.0149,245.3667,25.2508,3.511968,0.1497539,0.43424494,310.4836,06/18.0/2022,2000,g 14.5,2.0
# From MPEC 2022-K19
238P/Read,e,1.2641,51.6253,324.2286,3.167364,0.1748465,0.25193932,2.1840,06/18.0/2022,2000,g 14.5,4.0
# From MPEC 2021-F20
239P/LINEAR,e,11.2999,255.9191,220.3981,4.468587,0.1043395,0.63013001,131.0345,06/18.0/2022,2000,g 17.5,2.0
# From MPEC 2021-F20
240P/NEAT,e,23.5224,74.9076,351.9423,3.865121,0.1297058,0.44949961,193.7854,06/18.0/2022,2000,g 12.1,4.0
# From MPEC 2022-J42
241P/LINEAR,e,21.1049,305.4826,111.4419,4.919499,0.0903281,0.61021074,29.5486,06/18.0/2022,2000,g 13.5,4.0
# From MPEC 2021-S45
242P/Spahr,e,32.5084,180.3776,245.6288,5.495018,0.0765157,0.27860221,289.1830,06/18.0/2022,2000,g  8.0,4.0
# From MPEC 2022-K19
243P/NEAT,e,7.6407,87.6137,283.5916,3.830242,0.1314815,0.36052371,182.8263,06/18.0/2022,2000,g 12.5,4.0
# From MPEC 2022-ED3
244P/Scotti,e,2.2594,353.9907,93.0740,4.895168,0.0910024,0.19911296,346.1671,06/18.0/2022,2000,g  9.0,4.0
# From MPEC 2022-CN4
245P/WISE,e,21.1940,316.6569,316.8791,4.046340,0.1210906,0.45652702,192.6717,06/18.0/2022,2000,g 14.0,4.0
# From MPEC 2022-L66
246P/NEAT,e,15.9661,78.5571,176.8305,4.030181,0.1218196,0.28895193,58.2790,06/18.0/2022,2000,g 10.5,4.0
# From MPEC 2021-F20
247P/LINEAR,e,13.6567,54.0199,47.4246,3.968088,0.1246901,0.62441565,161.4437,06/18.0/2022,2000,g 16.5,2.0
# From MPC 75730
248P/Gibbs,e,6.3507,207.8008,209.8505,5.991122,0.0672112,0.63883750,280.3368,06/18.0/2022,2000,g 14.0,4.0
# From MPEC 2021-S45
249P/LINEAR,e,8.3889,239.1143,65.6991,2.763369,0.2145585,0.81989534,154.1628,06/18.0/2022,2000,g 15.5,4.0
# From MPC110497
250P/Larson,e,13.1545,73.4028,46.1381,3.766586,0.1348286,0.39927354,216.4061,06/18.0/2022,2000,g 14.5,4.0
# From MPC104795
251P/LINEAR,e,23.3870,219.3550,31.2800,3.512040,0.1497493,0.50464127,269.3645,06/18.0/2022,2000,g 16.5,2.0
# From MPEC 2021-S45
252P/LINEAR,e,10.4109,190.9306,343.3470,3.050107,0.1850255,0.67171262,63.2309,06/18.0/2022,2000,g 17.5,4.0
# From MPEC 2020-FB5
253P/PANSTARRS,e,4.9435,146.8852,230.6697,3.465361,0.1527852,0.41439440,229.2466,06/18.0/2022,2000,g 14.5,4.0
# From MPEC 2022-K19
254P/McNaught,e,32.5708,129.1794,219.5986,4.614202,0.0994395,0.31978043,62.2319,06/18.0/2022,2000,g 11.0,4.0
# From MPEC 2021-UA9
255P/Levy,e,13.4109,275.6670,186.0085,2.942727,0.1952446,0.71157829,344.1278,06/18.0/2022,2000,g 14.1,4.0
# From MPEC 2022-C56
256P/LINEAR,e,27.6195,81.3402,124.2131,4.639081,0.0986407,0.41797279,333.6298,06/18.0/2022,2000,g 14.0,2.0
# From MPEC 2021-Y10
257P/Catalina,e,20.2203,207.7236,117.7191,3.763215,0.1350099,0.43027034,87.1153,06/18.0/2022,2000,g 11.5,4.0
# From MPEC 2021-U31
258P/PANSTARRS,e,6.7462,126.2426,25.8613,4.395833,0.1069405,0.20840345,78.0659,06/18.0/2022,2000,g 13.0,4.0
# From MPC106349
259P/Garradd,e,15.8915,51.4371,257.6419,2.731111,0.2183711,0.33889812,28.3061,06/18.0/2022,2000,g 15.5,4.0
# From MPEC 2022-K19
260P/McNaught,e,15.0587,349.3386,18.4274,3.623135,0.1429148,0.60933874,144.5551,06/18.0/2022,2000,g 13.5,4.0
# From MPEC 2021-J28
